[{"OBJECT_NAME":"ONEWEB-0263","OBJECT_ID":"2021-060Q","EPOCH":"2025-12-31T06:28:31.511424","MEAN_MOTION":13.16593792,"ECCENTRICITY":0.0001555,"INCLINATION":87.9038,"RA_OF_ASC_NODE":262.218,"ARG_OF_PERICENTER":60.7864,"MEAN_ANOMALY":299.3422,"EPHEMERIS_TYPE":0,"CLASSIFICATION_TYPE":"U","NORAD_CAT_ID":48981,"ELEMENT_SET_NO":999,"REV_AT_EPOCH":21749,"BSTAR":-7.6135638e-5,"MEAN_MOTION_DOT":-1.6e-7,"MEAN_MOTION_DDOT":0},{"OBJECT_NAME":"ONEWEB-0264","OBJECT_ID":"2021-060R","EPOCH":"2025-12-31T05:32:40.328448","MEAN_MOTION":13.16594654,"ECCENTRICITY":0.00017123,"INCLINATION":87.9036,"RA_OF_ASC_NODE":262.2283,"ARG_OF_PERICENTER":69.644,"MEAN_ANOMALY":290.4875,"EPHEMERIS_TYPE":0,"CLASSIFICATION_TYPE":"U","NORAD_CAT_ID":48982,"ELEMENT_SET_NO":999,"REV_AT_EPOCH":21749,"BSTAR":-0.00011814922,"MEAN_MOTION_DOT":-3.2e-7,"MEAN_MOTION_DDOT":0},{"OBJECT_NAME":"ONEWEB-0266","OBJECT_ID":"2021-060T","EPOCH":"2025-12-31T06:03:26.558208","MEAN_MOTION":13.16592965,"ECCENTRICITY":0.00013672,"INCLINATION":87.9046,"RA_OF_ASC_NODE":262.2119,"ARG_OF_PERICENTER":75.832,"MEAN_ANOMALY":284.2962,"EPHEMERIS_TYPE":0,"CLASSIFICATION_TYPE":"U","NORAD_CAT_ID":48984,"ELEMENT_SET_NO":999,"REV_AT_EPOCH":21748,"BSTAR":0.00023819273,"MEAN_MOTION_DOT":1.04e-6,"MEAN_MOTION_DDOT":0},{"OBJECT_NAME":"ONEWEB-0267","OBJECT_ID":"2021-060U","EPOCH":"2025-12-31T06:19:24.750624","MEAN_MOTION":13.16593503,"ECCENTRICITY":0.00016554,"INCLINATION":87.9042,"RA_OF_ASC_NODE":262.2079,"ARG_OF_PERICENTER":66.9317,"MEAN_ANOMALY":293.1989,"EPHEMERIS_TYPE":0,"CLASSIFICATION_TYPE":"U","NORAD_CAT_ID":48985,"ELEMENT_SET_NO":999,"REV_AT_EPOCH":21749,"BSTAR":1.7870848e-5,"MEAN_MOTION_DOT":2.0e-7,"MEAN_MOTION_DDOT":0},{"OBJECT_NAME":"ONEWEB-0268","OBJECT_ID":"2021-060V","EPOCH":"2025-12-31T05:33:48.023712","MEAN_MOTION":13.16592986,"ECCENTRICITY":0.00016092,"INCLINATION":87.9042,"RA_OF_ASC_NODE":262.2234,"ARG_OF_PERICENTER":73.3478,"MEAN_ANOMALY":286.7829,"EPHEMERIS_TYPE":0,"CLASSIFICATION_TYPE":"U","NORAD_CAT_ID":48986,"ELEMENT_SET_NO":999,"REV_AT_EPOCH":21775,"BSTAR":-5.2279952e-5,"MEAN_MOTION_DOT":-7.0e-8,"MEAN_MOTION_DDOT":0},{"OBJECT_NAME":"ONEWEB-0269","OBJECT_ID":"2021-060W","EPOCH":"2025-12-31T05:06:27.396576","MEAN_MOTION":13.16594067,"ECCENTRICITY":0.00017179,"INCLINATION":87.9034,"RA_OF_ASC_NODE":262.2474,"ARG_OF_PERICENTER":80.7385,"MEAN_ANOMALY":279.3941,"EPHEMERIS_TYPE":0,"CLASSIFICATION_TYPE":"U","NORAD_CAT_ID":48987,"ELEMENT_SET_NO":999,"REV_AT_EPOCH":21752,"BSTAR":-0.0001659711,"MEAN_MOTION_DOT":-5.1e-7,"MEAN_MOTION_DDOT":0},{"OBJECT_NAME":"ONEWEB-0270","OBJECT_ID":"2021-060X","EPOCH":"2025-12-31T05:31:32.305728","MEAN_MOTION":13.16593055,"ECCENTRICITY":0.00014096,"INCLINATION":87.9042,"RA_OF_ASC_NODE":262.2255,"ARG_OF_PERICENTER":58.0203,"MEAN_ANOMALY":302.1064,"EPHEMERIS_TYPE":0,"CLASSIFICATION_TYPE":"U","NORAD_CAT_ID":48988,"ELEMENT_SET_NO":999,"REV_AT_EPOCH":21756,"BSTAR":-8.6711314e-5,"MEAN_MOTION_DOT":-2.0e-7,"MEAN_MOTION_DDOT":0},{"OBJECT_NAME":"ONEWEB-0271","OBJECT_ID":"2021-060Y","EPOCH":"2025-12-31T05:13:17.961600","MEAN_MOTION":13.16593449,"ECCENTRICITY":0.00016051,"INCLINATION":87.9044,"RA_OF_ASC_NODE":262.2175,"ARG_OF_PERICENTER":65.6321,"MEAN_ANOMALY":294.4977,"EPHEMERIS_TYPE":0,"CLASSIFICATION_TYPE":"U","NORAD_CAT_ID":48989,"ELEMENT_SET_NO":999,"REV_AT_EPOCH":21756,"BSTAR":-7.9832952e-5,"MEAN_MOTION_DOT":-1.8e-7,"MEAN_MOTION_DDOT":0},{"OBJECT_NAME":"ONEWEB-0272","OBJECT_ID":"2021-060Z","EPOCH":"2025-12-31T05:45:12.176064","MEAN_MOTION":13.16592675,"ECCENTRICITY":0.0001739,"INCLINATION":87.9037,"RA_OF_ASC_NODE":262.2269,"ARG_OF_PERICENTER":69.4253,"MEAN_ANOMALY":290.7064,"EPHEMERIS_TYPE":0,"CLASSIFICATION_TYPE":"U","NORAD_CAT_ID":48990,"ELEMENT_SET_NO":999,"REV_AT_EPOCH":21751,"BSTAR":0.0003394295,"MEAN_MOTION_DOT":1.43e-6,"MEAN_MOTION_DDOT":0},{"OBJECT_NAME":"ONEWEB-0273","OBJECT_ID":"2021-060AA","EPOCH":"2025-12-31T06:17:08.194560","MEAN_MOTION":13.16593129,"ECCENTRICITY":0.00015122,"INCLINATION":87.9044,"RA_OF_ASC_NODE":262.219,"ARG_OF_PERICENTER":67.2079,"MEAN_ANOMALY":292.9212,"EPHEMERIS_TYPE":0,"CLASSIFICATION_TYPE":"U","NORAD_CAT_ID":48991,"ELEMENT_SET_NO":999,"REV_AT_EPOCH":21749,"BSTAR":-2.877652e-5,"MEAN_MOTION_DOT":2.0e-8,"MEAN_MOTION_DDOT":0},{"OBJECT_NAME":"ONEWEB-0274","OBJECT_ID":"2021-060AB","EPOCH":"2025-12-31T06:53:36.479328","MEAN_MOTION":13.16593141,"ECCENTRICITY":0.00019268,"INCLINATION":87.9033,"RA_OF_ASC_NODE":262.2349,"ARG_OF_PERICENTER":74.2522,"MEAN_ANOMALY":285.8821,"EPHEMERIS_TYPE":0,"CLASSIFICATION_TYPE":"U","NORAD_CAT_ID":48992,"ELEMENT_SET_NO":999,"REV_AT_EPOCH":21753,"BSTAR":-0.00020663062,"MEAN_MOTION_DOT":-6.6e-7,"MEAN_MOTION_DDOT":0},{"OBJECT_NAME":"ONEWEB-0275","OBJECT_ID":"2021-060AC","EPOCH":"2025-12-31T04:48:12.701664","MEAN_MOTION":13.1659337,"ECCENTRICITY":0.00016391,"INCLINATION":87.9045,"RA_OF_ASC_NODE":262.2243,"ARG_OF_PERICENTER":70.9581,"MEAN_ANOMALY":289.1727,"EPHEMERIS_TYPE":0,"CLASSIFICATION_TYPE":"U","NORAD_CAT_ID":48993,"ELEMENT_SET_NO":999,"REV_AT_EPOCH":21745,"BSTAR":-8.3684444e-5,"MEAN_MOTION_DOT":-1.9e-7,"MEAN_MOTION_DDOT":0},{"OBJECT_NAME":"ONEWEB-0276","OBJECT_ID":"2021-060AD","EPOCH":"2025-12-31T05:36:05.116320","MEAN_MOTION":13.16592911,"ECCENTRICITY":0.00013743,"INCLINATION":87.9043,"RA_OF_ASC_NODE":262.2175,"ARG_OF_PERICENTER":70.3057,"MEAN_ANOMALY":289.8222,"EPHEMERIS_TYPE":0,"CLASSIFICATION_TYPE":"U","NORAD_CAT_ID":48994,"ELEMENT_SET_NO":999,"REV_AT_EPOCH":21747,"BSTAR":7.4992846e-5,"MEAN_MOTION_DOT":4.2e-7,"MEAN_MOTION_DDOT":0},{"OBJECT_NAME":"ONEWEB-0277","OBJECT_ID":"2021-060AE","EPOCH":"2025-12-31T05:54:19.895040","MEAN_MOTION":13.16594917,"ECCENTRICITY":0.00015834,"INCLINATION":87.9031,"RA_OF_ASC_NODE":262.2372,"ARG_OF_PERICENTER":72.3862,"MEAN_ANOMALY":287.7442,"EPHEMERIS_TYPE":0,"CLASSIFICATION_TYPE":"U","NORAD_CAT_ID":48995,"ELEMENT_SET_NO":999,"REV_AT_EPOCH":21746,"BSTAR":0.00040338894,"MEAN_MOTION_DOT":1.67e-6,"MEAN_MOTION_DDOT":0},{"OBJECT_NAME":"ONEWEB-0278","OBJECT_ID":"2021-060AF","EPOCH":"2025-12-31T05:40:39.022464","MEAN_MOTION":13.1659456,"ECCENTRICITY":0.00013066,"INCLINATION":87.9045,"RA_OF_ASC_NODE":262.2134,"ARG_OF_PERICENTER":80.5933,"MEAN_ANOMALY":279.5346,"EPHEMERIS_TYPE":0,"CLASSIFICATION_TYPE":"U","NORAD_CAT_ID":48996,"ELEMENT_SET_NO":999,"REV_AT_EPOCH":21759,"BSTAR":0.00093493933,"MEAN_MOTION_DOT":3.7e-6,"MEAN_MOTION_DDOT":0},{"OBJECT_NAME":"ONEWEB-0279","OBJECT_ID":"2021-060AG","EPOCH":"2025-12-31T05:52:02.933760","MEAN_MOTION":13.16599435,"ECCENTRICITY":0.00016141,"INCLINATION":87.9041,"RA_OF_ASC_NODE":262.2098,"ARG_OF_PERICENTER":64.3793,"MEAN_ANOMALY":295.7504,"EPHEMERIS_TYPE":0,"CLASSIFICATION_TYPE":"U","NORAD_CAT_ID":48997,"ELEMENT_SET_NO":999,"REV_AT_EPOCH":21752,"BSTAR":0.0017442463,"MEAN_MOTION_DOT":6.8e-6,"MEAN_MOTION_DDOT":0}]
