ONEWEB-0263             
1 48981U 21060Q   25365.26980916 -.00000016  00000+0 -76136-4 0  9996
2 48981  87.9038 262.2180 0001555  60.7864 299.3422 13.16593792217495
ONEWEB-0264             
1 48982U 21060R   25365.23102232 -.00000032  00000+0 -11815-3 0  9991
2 48982  87.9036 262.2283 0001712  69.6440 290.4875 13.16594654217493
ONEWEB-0266             
1 48984U 21060T   25365.25239072  .00000104  00000+0  23819-3 0  9993
2 48984  87.9046 262.2119 0001367  75.8320 284.2962 13.16592965217486
ONEWEB-0267             
1 48985U 21060U   25365.26348091  .00000020  00000+0  17871-4 0  9996
2 48985  87.9042 262.2079 0001655  66.9317 293.1989 13.16593503217493
ONEWEB-0268             
1 48986U 21060V   25365.23180583 -.00000007  00000+0 -52280-4 0  9994
2 48986  87.9042 262.2234 0001609  73.3478 286.7829 13.16592986217750
ONEWEB-0269             
1 48987U 21060W   25365.21281709 -.00000051  00000+0 -16597-3 0  9994
2 48987  87.9034 262.2474 0001717  80.7385 279.3941 13.16594067217527
ONEWEB-0270             
1 48988U 21060X   25365.23023502 -.00000020  00000+0 -86711-4 0  9994
2 48988  87.9042 262.2255 0001409  58.0203 302.1064 13.16593055217560
ONEWEB-0271             
1 48989U 21060Y   25365.21756900 -.00000018  00000+0 -79833-4 0  9992
2 48989  87.9044 262.2175 0001605  65.6321 294.4977 13.16593449217560
ONEWEB-0272             
1 48990U 21060Z   25365.23972426  .00000143  00000+0  33943-3 0  9997
2 48990  87.9037 262.2269 0001739  69.4253 290.7064 13.16592675217513
ONEWEB-0273             
1 48991U 21060AA  25365.26190040  .00000002  00000+0 -28777-4 0  9990
2 48991  87.9044 262.2190 0001512  67.2079 292.9212 13.16593129217497
ONEWEB-0274             
1 48992U 21060AB  25365.28722777 -.00000066  00000+0 -20663-3 0  9997
2 48992  87.9033 262.2349 0001926  74.2522 285.8821 13.16593141217538
ONEWEB-0275             
1 48993U 21060AC  25365.20014701 -.00000019  00000+0 -83684-4 0  9992
2 48993  87.9045 262.2243 0001639  70.9581 289.1727 13.16593370217451
ONEWEB-0276             
1 48994U 21060AD  25365.23339255  .00000042  00000+0  74993-4 0  9997
2 48994  87.9043 262.2175 0001374  70.3057 289.8222 13.16592911217471
ONEWEB-0277             
1 48995U 21060AE  25365.24606360  .00000167  00000+0  40339-3 0  9997
2 48995  87.9031 262.2372 0001583  72.3862 287.7442 13.16594917217464
ONEWEB-0278             
1 48996U 21060AF  25365.23656276  .00000370  00000+0  93494-3 0  9994
2 48996  87.9045 262.2134 0001306  80.5933 279.5346 13.16594560217599
ONEWEB-0279             
1 48997U 21060AG  25365.24447840  .00000680  00000+0  17442-2 0  9993
2 48997  87.9041 262.2098 0001614  64.3793 295.7504 13.16599435217526
